GLOBALSTAR M057         
1 25943U 99058A   24269.62534073 -.00000014  00000+0  71373-3 0  9996
2 25943  52.0020  19.0116 0002573 176.7212 183.3654 12.24798291134514
GLOBALSTAR M059         
1 25944U 99058B   24269.56432104 -.00000101  00000+0 -18831-3 0  9990
2 25944  52.0008 203.0560 0000624  72.6991  98.5119 11.99965656542273
GLOBALSTAR M056         
1 25945U 99058C   24269.62419233 -.00000100  00000+0 -14533-3 0  9990
2 25945  51.9951 211.6446 0001325  23.6572 147.1916 12.04778436130732
GLOBALSTAR M031         
1 25946U 99058D   24269.35120024  .00000016  00000+0  10850-2 0  9999
2 25946  51.9943 120.5756 0001893  27.6213 143.0116 12.16017596132322
GLOBALSTAR M039         
1 25961U 99062A   24269.54264834 -.00000068  00000+0  20127-3 0  9997
2 25961  51.9874 354.7595 0003299 120.5581 239.5612 12.62303561146796
GLOBALSTAR M034         
1 25962U 99062B   24269.55253337 -.00000068  00000+0  19889-3 0  9998
2 25962  51.9905 339.2808 0013707 260.6537 237.3561 11.79432642107166
GLOBALSTAR M029         
1 25963U 99062C   24269.51944473 -.00000089  00000+0 -32754-4 0  9994
2 25963  51.9787  91.4397 0002114 337.5582  37.6439 11.99883270137403
GLOBALSTAR M061         
1 25964U 99062D   24269.47380183 -.00000033  00000+0  77020-3 0  9994
2 25964  51.9781 160.0085 0005537 181.5057 350.1943 11.76766391 90018
